METHANESAT              
1 59101U 24043D   26101.86290675  .00001661  00000+0  14636-3 0  9998
2 59101  97.8347 232.6322 0009153 226.6297 133.4163 14.97825634114723
GOSAT-GW (IBUKI GW)     
1 64694U 25141A   26102.25871536  .00000985  00000+0  18203-3 0  9998
2 64694  98.0536  40.6604 0001417  83.7898 276.3469 14.67556824 42177
GHGSAT-C1               
1 46278U 20061G   26102.28318652  .00023766  00000+0  22479-3 0  9992
2 46278  97.2119 185.4698 0000593 203.7847 156.3387 15.66986198313141
GHGSAT-C12              
1 64529U 25135B   26102.28768303  .00002614  00000+0  12502-3 0  9995
2 64529  97.4657 217.7303 0006058  55.3964 304.7841 15.19864064 44818
GHGSAT-C13              
1 64548U 25135W   26102.25678134  .00002550  00000+0  11977-3 0  9999
2 64548  97.4684 218.1704 0001555  48.2382 311.8986 15.20532583 44832
GHGSAT-C2               
1 47509U 21006DA  26102.08569187  .00005127  00000+0  14364-3 0  9994
2 47509  97.2229 150.4884 0006470  58.7663 301.4215 15.37032341289699
GHGSAT-C3               
1 52737U 22057F   26102.28723575  .00005110  00000+0  16023-3 0  9991
2 52737  97.6492 245.5545 0005896   9.2657 350.8692 15.33527449215431
GHGSAT-C4               
1 52746U 22057Q   26102.24188736  .00005102  00000+0  16006-3 0  9993
2 52746  97.6417 244.4058 0005766 353.3950   6.7215 15.33511694215433
GHGSAT-C5               
1 52744U 22057N   26102.32520198  .00004980  00000+0  15633-3 0  9990
2 52744  97.6583 247.0915 0006610   2.5508 357.5766 15.33503758215448
GHGSAT-C6               
1 56204U 23054AC  26102.23098123  .00010835  00000+0  18763-3 0  9994
2 56204  97.3086  11.0381 0004198 283.6723  76.4062 15.51088911168222
GHGSAT-C7               
1 56209U 23054AH  26102.24735042  .00008322  00000+0  15798-3 0  9991
2 56209  97.3050   9.8371 0005632 276.8043  83.2567 15.48538547168187
GHGSAT-C8               
1 56186U 23054J   26102.26633671  .00009546  00000+0  16542-3 0  9999
2 56186  97.3038  10.4441 0003158 333.4336  26.6754 15.51111718168213
SENTINEL-5P             
1 42969U 17064A   26102.22671376  .00000038  00000+0  38856-4 0  9997
2 42969  98.7924  44.8322 0001255  85.9118 274.2201 14.19507602440202
ENMAP                   
1 52159U 22033C   26102.29354216  .00000200  00000+0  37182-4 0  9991
2 52159  97.9789 185.4782 0001667 100.1515 259.9882 14.75009446216946
PRISMA                  
1 44072U 19015A   26101.64328909  .00001471  00000+0  18444-3 0  9990
2 44072  97.8665 177.3980 0001457  89.3505 270.7876 14.83701057382187
SENTINEL-2A             
1 40697U 15028A   26102.27067860 -.00000071  00000+0 -10308-4 0  9994
2 40697  98.5633 178.0701 0001331  90.8248 269.3088 14.30819359564302
SENTINEL-2B             
1 42063U 17013A   26102.33336285  .00000049  00000+0  35207-4 0  9994
2 42063  98.5660 178.0445 0001222  94.9125 265.2197 14.30820317475228
SENTINEL-2C             
1 60989U 24157A   26102.15853796  .00000077  00000+0  45841-4 0  9995
2 60989  98.5642 177.8875 0001289 108.6614 251.4709 14.30812883 83543
LANDSAT 8               
1 39084U 13008A   26102.23959250  .00000235  00000+0  62120-4 0  9996
2 39084  98.1865 173.4043 0001174  93.0609 267.0724 14.57116424688291
LANDSAT 9               
1 49260U 21088A   26102.27406778  .00000168  00000+0  47191-4 0  9992
2 49260  98.1888 173.5075 0001115 101.4319 258.7005 14.57112089241406
TANAGER-1               
1 60507U 24149AR  26101.68886407  .00013207  00000+0  29111-3 0  9994
2 60507  97.3641 195.5128 0007401 175.5863 184.5452 15.44019819 92774
